[
   {
      "name": "STARLINK-2375",
      "line1": "1 47914U 21021BG  21092.91668981  .00070725  00000-0  50507-3 0  9994",
      "line2": "2 47914  53.0492 120.9251 0001386  66.5305 150.0619 15.73150873  1770",
      "drg": 50.507,
      "inc": 53.0492,
      "ran": 120.9251,
      "ecc": 0.0001386,
      "aop": 66.5305,
      "man": 150.0619,
      "mmo": 15.73150873,
      "sma": 6728.03524
   },
   {
      "name": "STARLINK-2376",
      "line1": "1 47915U 21021BH  21092.91668981  .00061470  00000-0  44025-3 0  9990",
      "line2": "2 47915  53.0492 120.9434 0001138  60.5185 147.2656 15.73139630  1776",
      "drg": 44.025,
      "inc": 53.0492,
      "ran": 120.9434,
      "ecc": 0.0001138,
      "aop": 60.5185,
      "man": 147.2656,
      "mmo": 15.7313963,
      "sma": 6728.0673
   },
   {
      "name": "STARLINK-2378",
      "line1": "1 47916U 21021BJ  21092.91668981  .00070921  00000-0  50640-3 0  9992",
      "line2": "2 47916  53.0495 120.9599 0001822 312.6204 247.5618 15.73152572  1777",
      "drg": 50.64,
      "inc": 53.0495,
      "ran": 120.9599,
      "ecc": 0.0001822,
      "aop": 312.6204,
      "man": 247.5618,
      "mmo": 15.73152572,
      "sma": 6728.0304
   },
   {
      "name": "STARLINK-2397",
      "line1": "1 47917U 21021BK  21092.91668981  .00070727  00000-0  50503-3 0  9995",
      "line2": "2 47917  53.0491 120.9274 0001400  64.9302 150.4303 15.73153347  1776",
      "drg": 50.503,
      "inc": 53.0491,
      "ran": 120.9274,
      "ecc": 0.00014,
      "aop": 64.9302,
      "man": 150.4303,
      "mmo": 15.73153347,
      "sma": 6728.02819
   },
   {
      "name": "STARLINK-2398",
      "line1": "1 47918U 21021BL  21092.91668981  .00070566  00000-0  50412-3 0  9996",
      "line2": "2 47918  53.0492 120.9355 0001027  54.2660 157.3482 15.73143395  1778",
      "drg": 50.412,
      "inc": 53.0492,
      "ran": 120.9355,
      "ecc": 0.0001027,
      "aop": 54.266,
      "man": 157.3482,
      "mmo": 15.73143395,
      "sma": 6728.05656
   },
   {
      "name": "STARLINK-2405",
      "line1": "1 47919U 21021BM  21092.91668981  .00064092  00000-0  45871-3 0  9997",
      "line2": "2 47919  53.0493 120.9366 0001296  65.8487 145.1161 15.73139014  1777",
      "drg": 45.871,
      "inc": 53.0493,
      "ran": 120.9366,
      "ecc": 0.0001296,
      "aop": 65.8487,
      "man": 145.1161,
      "mmo": 15.73139014,
      "sma": 6728.06905
   },
   {
      "name": "FALCON 9 DEB (XIII)",
      "line1": "1 47920U 21021BN  21092.56474451  .00783068  11735-4  48519-3 0  9991",
      "line2": "2 47920  53.0462 119.7127 0013448 299.2597  60.7095 16.17081472  3080",
      "drg": 48.519,
      "inc": 53.0462,
      "ran": 119.7127,
      "ecc": 0.0013448,
      "aop": 299.2597,
      "man": 60.7095,
      "mmo": 16.17081472,
      "sma": 6605.62488
   },
   {
      "name": "FALCON 9 DEB (XIV)",
      "line1": "1 47921U 21021BP  21092.56675316  .00585405  20897-3  40660-3 0  9997",
      "line2": "2 47921  53.0498 119.7294 0012367 296.7420  63.2350 16.15637195  3080",
      "drg": 40.66,
      "inc": 53.0498,
      "ran": 119.7294,
      "ecc": 0.0012367,
      "aop": 296.742,
      "man": 63.235,
      "mmo": 16.15637195,
      "sma": 6609.56097
   },
   {
      "name": "FALCON 9 DEB (XV)",
      "line1": "1 47922U 21021BQ  21092.79288320  .00913627  11803-4  46711-3 0  9990",
      "line2": "2 47922  53.0426 118.2704 0011208 284.4436  75.5358 16.19676899  3123",
      "drg": 46.711,
      "inc": 53.0426,
      "ran": 118.2704,
      "ecc": 0.0011208,
      "aop": 284.4436,
      "man": 75.5358,
      "mmo": 16.19676899,
      "sma": 6598.56627
   },
   {
      "name": "FALCON 9 DEB (XVI)",
      "line1": "1 47923U 21021BR  21092.77867023  .01576969  11931-4  55752-3 0  9994",
      "line2": "2 47923  53.0426 118.1758 0008989 289.9328  70.0743 16.24276273  3120",
      "drg": 55.752,
      "inc": 53.0426,
      "ran": 118.1758,
      "ecc": 0.0008989,
      "aop": 289.9328,
      "man": 70.0743,
      "mmo": 16.24276273,
      "sma": 6586.10385
   },
   {
      "name": "STARLINK-2087",
      "line1": "1 47977U 21024A   21092.91668981 -.00879559  00000-0 -35942-2 0  9995",
      "line2": "2 47977  53.0496 157.1247 0001078  45.3564 240.7201 15.87419947  1779",
      "drg": -359.42,
      "inc": 53.0496,
      "ran": 157.1247,
      "ecc": 0.0001078,
      "aop": 45.3564,
      "man": 240.7201,
      "mmo": 15.87419947,
      "sma": 6687.65641
   },
   {
      "name": "STARLINK-1647",
      "line1": "1 47978U 21024B   21092.91668981 -.00886241  00000-0 -36221-2 0  9993",
      "line2": "2 47978  53.0497 157.1246 0001158  55.4359 231.0417 15.87431404  1777",
      "drg": -362.21,
      "inc": 53.0497,
      "ran": 157.1246,
      "ecc": 0.0001158,
      "aop": 55.4359,
      "man": 231.0417,
      "mmo": 15.87431404,
      "sma": 6687.62424
   },
   {
      "name": "STARLINK-2325",
      "line1": "1 47979U 21024C   21092.91668981 -.00886296  00000-0 -36197-2 0  9996",
      "line2": "2 47979  53.0495 157.1231 0001139  56.9400 229.9624 15.87446220  1770",
      "drg": -361.97,
      "inc": 53.0495,
      "ran": 157.1231,
      "ecc": 0.0001139,
      "aop": 56.94,
      "man": 229.9624,
      "mmo": 15.8744622,
      "sma": 6687.58262
   },
   {
      "name": "STARLINK-2312",
      "line1": "1 47980U 21024D   21092.91668981 -.00860377  00000-0 -35008-2 0  9990",
      "line2": "2 47980  53.0496 157.1228 0003640 285.4777   1.6771 15.87433055  1774",
      "drg": -350.08,
      "inc": 53.0496,
      "ran": 157.1228,
      "ecc": 0.000364,
      "aop": 285.4777,
      "man": 1.6771,
      "mmo": 15.87433055,
      "sma": 6687.6196
   },
   {
      "name": "STARLINK-2303",
      "line1": "1 47981U 21024E   21092.91668981 -.00860532  00000-0 -34987-2 0  9999",
      "line2": "2 47981  53.0488 157.1213 0004057 283.6981   3.8259 15.87443318  1778",
      "drg": -349.87,
      "inc": 53.0488,
      "ran": 157.1213,
      "ecc": 0.0004057,
      "aop": 283.6981,
      "man": 3.8259,
      "mmo": 15.87443318,
      "sma": 6687.59077
   },
   {
      "name": "STARLINK-2317",
      "line1": "1 47982U 21024F   21092.91668981 -.00796833  00000-0 -32275-2 0  9990",
      "line2": "2 47982  53.0491 157.1199 0001029  44.9419 242.9398 15.87407001  1775",
      "drg": -322.75,
      "inc": 53.0491,
      "ran": 157.1199,
      "ecc": 0.0001029,
      "aop": 44.9419,
      "man": 242.9398,
      "mmo": 15.87407001,
      "sma": 6687.69277
   },
   {
      "name": "STARLINK-2289",
      "line1": "1 47983U 21024G   21092.91668981 -.00863129  00000-0 -35118-2 0  9993",
      "line2": "2 47983  53.0499 157.1201 0000961 329.0952 319.1129 15.87469942  1772",
      "drg": -351.18,
      "inc": 53.0499,
      "ran": 157.1201,
      "ecc": 9.61e-05,
      "aop": 329.0952,
      "man": 319.1129,
      "mmo": 15.87469942,
      "sma": 6687.516
   },
   {
      "name": "STARLINK-2316",
      "line1": "1 47984U 21024H   21092.91668981 -.00877918  00000-0 -35741-2 0  9997",
      "line2": "2 47984  53.0496 157.1199 0001012  41.5335 247.0164 15.87491740  1774",
      "drg": -357.41,
      "inc": 53.0496,
      "ran": 157.1199,
      "ecc": 0.0001012,
      "aop": 41.5335,
      "man": 247.0164,
      "mmo": 15.8749174,
      "sma": 6687.45478
   },
   {
      "name": "STARLINK-2308",
      "line1": "1 47985U 21024J   21092.91668981 -.00863062  00000-0 -35081-2 0  9990",
      "line2": "2 47985  53.0490 157.1184 0000697 320.2490 328.6624 15.87491584  1773",
      "drg": -350.81,
      "inc": 53.049,
      "ran": 157.1184,
      "ecc": 6.97e-05,
      "aop": 320.249,
      "man": 328.6624,
      "mmo": 15.87491584,
      "sma": 6687.45522
   },
   {
      "name": "STARLINK-2313",
      "line1": "1 47986U 21024K   21092.91668981  .02013646  26142-2  44040-2 0  9998",
      "line2": "2 47986  53.0460 156.8178 0005662 271.8981 158.7899 15.98189108  1777",
      "drg": 440.4,
      "inc": 53.046,
      "ran": 156.8178,
      "ecc": 0.0005662,
      "aop": 271.8981,
      "man": 158.7899,
      "mmo": 15.98189108,
      "sma": 6657.58005
   },
   {
      "name": "STARLINK-2311",
      "line1": "1 47987U 21024L   21092.91668981 -.00879789  00000-0 -35768-2 0  9997",
      "line2": "2 47987  53.0494 157.1168 0001085  44.4858 245.1211 15.87522942  1774",
      "drg": -357.68,
      "inc": 53.0494,
      "ran": 157.1168,
      "ecc": 0.0001085,
      "aop": 44.4858,
      "man": 245.1211,
      "mmo": 15.87522942,
      "sma": 6687.36716
   },
   {
      "name": "STARLINK-2306",
      "line1": "1 47988U 21024M   21092.91668981 -.00886104  00000-0 -36015-2 0  9993",
      "line2": "2 47988  53.0489 157.1166 0001063  65.3610 224.5795 15.87543147  1779",
      "drg": -360.15,
      "inc": 53.0489,
      "ran": 157.1166,
      "ecc": 0.0001063,
      "aop": 65.361,
      "man": 224.5795,
      "mmo": 15.87543147,
      "sma": 6687.31042
   },
   {
      "name": "STARLINK-2305",
      "line1": "1 47989U 21024N   21092.91668981 -.00882222  00000-0 -35826-2 0  9990",
      "line2": "2 47989  53.0495 157.1153 0001101  50.9910 239.2949 15.87551291  1772",
      "drg": -358.26,
      "inc": 53.0495,
      "ran": 157.1153,
      "ecc": 0.0001101,
      "aop": 50.991,
      "man": 239.2949,
      "mmo": 15.87551291,
      "sma": 6687.28755
   },
   {
      "name": "STARLINK-2307",
      "line1": "1 47990U 21024P   21092.91668981 -.00886442  00000-0 -35972-2 0  9992",
      "line2": "2 47990  53.0496 157.1153 0001118  57.0196 233.6127 15.87575001  1778",
      "drg": -359.72,
      "inc": 53.0496,
      "ran": 157.1153,
      "ecc": 0.0001118,
      "aop": 57.0196,
      "man": 233.6127,
      "mmo": 15.87575001,
      "sma": 6687.22096
   }
]